NORAD_CAT_ID,OBJECT_NAME,OBJECT_TYPE,EPOCH,MEAN_MOTION,ECCENTRICITY,INCLINATION,RA_OF_ASC_NODE,ARG_OF_PERICENTER,MEAN_ANOMALY,BSTAR,MEAN_MOTION_DOT,MEAN_MOTION_DDOT,TLE_LINE0,TLE_LINE1,TLE_LINE2,SEMIMAJOR_AXIS,PERIOD,APOGEE,PERIGEE,DECAYED
55652.0,STARLINK-5487,PAYLOAD,2024-06-16 14:41:08,14.98329768,0.0003092,70.0,335.5619,268.978,91.1025,8.0697e-05,8.7e-06,0.0,0 STARLINK-5487,1 55652U 23021AA  24168.61190563  .00000870  00000-0  80697-4 0  9992,2 55652  70.0000 335.5619 0003092 268.9780  91.1025 14.98329768 74262,6950.194,96.107,574.208,569.91,0.0
55652.0,STARLINK-5487,PAYLOAD,2024-06-16 21:05:40,14.98332757,0.0003115,70.0002,334.8892,269.9162,90.164,6.9945e-05,7.42e-06,0.0,0 STARLINK-5487,1 55652U 23021AA  24168.87894400  .00000742  00000-0  69945-4 0  9992,2 55652  70.0002 334.8892 0003115 269.9162  90.1640 14.98332757 74309,6950.184,96.107,574.214,569.884,0.0
55652.0,STARLINK-5487,PAYLOAD,2024-06-17 21:07:41,14.98332509,0.0003064,70.0004,332.364,271.2144,88.8664,1.4464e-05,8e-07,0.0,0 STARLINK-5487,1 55652U 23021AA  24169.88034503  .00000080  00000-0  14464-4 0  9995,2 55652  70.0004 332.3640 0003064 271.2144  88.8664 14.98332509 74152,6950.185,96.107,574.18,569.921,0.0
55652.0,STARLINK-5487,PAYLOAD,2024-06-18 14:45:10,14.98330646,0.0003077,70.0004,330.5124,271.3117,88.7689,2.6422e-05,2.22e-06,0.0,0 STARLINK-5487,1 55652U 23021AA  24170.61470481  .00000222  00000-0  26422-4 0  9992,2 55652  70.0004 330.5124 0003077 271.3117  88.7689 14.98330646 74565,6950.191,96.107,574.194,569.917,0.0
55652.0,STARLINK-5487,PAYLOAD,2024-06-18 21:09:42,14.98334879,0.0003041,70.0004,329.8393,270.8393,89.2417,5.9435e-05,6.16e-06,0.0,0 STARLINK-5487,1 55652U 23021AA  24170.88174081  .00000616  00000-0  59435-4 0  9995,2 55652  70.0004 329.8393 0003041 270.8393  89.2417 14.98334879 74607,6950.178,96.107,574.156,569.929,0.0
55652.0,STARLINK-5487,PAYLOAD,2024-06-19 03:34:15,14.98329074,0.000301,70.0006,329.166,271.4362,88.6453,2.4502e-05,1.99e-06,0.0,0 STARLINK-5487,1 55652U 23021AA  24171.14878504  .00000199  00000-0  24502-4 0  9999,2 55652  70.0006 329.1660 0003010 271.4362  88.6453 14.98329074 74343,6950.196,96.107,574.153,569.969,0.0
55652.0,STARLINK-5487,PAYLOAD,2024-06-19 14:47:11,14.9832765,0.0002965,70.0005,327.9879,270.7132,89.3687,6.7737e-06,-1.2e-07,0.0,0 STARLINK-5487,1 55652U 23021AA  24171.61610686 -.00000012  00000-0  67737-5 0  9999,2 55652  70.0005 327.9879 0002965 270.7132  89.3687 14.98327650 74711,6950.2,96.107,574.126,570.004,0.0
55652.0,STARLINK-5487,PAYLOAD,2024-06-19 19:35:35,14.98328117,0.0002964,70.0005,327.483,270.2814,89.8006,9.669e-06,2.2e-07,0.0,0 STARLINK-5487,1 55652U 23021AA  24171.81638654  .00000022  00000-0  96690-5 0  9996,2 55652  70.0005 327.4830 0002964 270.2814  89.8006 14.98328117 74746,6950.199,96.107,574.124,570.004,0.0
55652.0,STARLINK-5487,PAYLOAD,2024-06-20 14:49:12,14.9832982,0.0002938,70.0006,325.463,269.1286,90.9536,-6.7387e-07,-1.01e-06,0.0,0 STARLINK-5487,1 55652U 23021AA  24172.61750606 -.00000101  00000-0 -67387-6 0  9999,2 55652  70.0006 325.4630 0002938 269.1286  90.9536 14.98329820 74860,6950.193,96.107,574.1,570.016,0.0
55652.0,STARLINK-5487,PAYLOAD,2024-06-20 19:37:36,14.98331171,0.0002933,70.0007,324.9581,269.1726,90.9097,1.4087e-05,7.5e-07,0.0,0 STARLINK-5487,1 55652U 23021AA  24172.81778475  .00000075  00000-0  14087-4 0  9990,2 55652  70.0007 324.9581 0002933 269.1726  90.9097 14.98331171 74598,6950.189,96.107,574.093,570.016,0.0
55652.0,STARLINK-5487,PAYLOAD,2024-06-21 13:15:05,14.98328972,0.0003012,70.0006,323.1063,269.5329,90.5485,6.0343e-05,6.27e-06,0.0,0 STARLINK-5487,1 55652U 23021AA  24173.55214514  .00000627  00000-0  60343-4 0  9990,2 55652  70.0006 323.1063 0003012 269.5329  90.5485 14.98328972 75004,6950.196,96.107,574.154,569.968,0.0
55652.0,STARLINK-5487,PAYLOAD,2024-06-21 19:39:37,14.9833069,0.0002979,70.0007,322.4326,267.8173,92.2644,6.3937e-05,6.7e-06,0.0,0 STARLINK-5487,1 55652U 23021AA  24173.81918389  .00000670  00000-0  63937-4 0  9990,2 55652  70.0007 322.4326 0002979 267.8173  92.2644 14.98330690 74744,6950.191,96.107,574.126,569.985,0.0
55652.0,STARLINK-5487,PAYLOAD,2024-06-22 13:17:06,14.98329457,0.0002979,70.0008,320.5814,263.3191,96.7629,1.9225e-05,1.36e-06,0.0,0 STARLINK-5487,1 55652U 23021AA  24174.55354533  .00000136  00000-0  19225-4 0  9995,2 55652  70.0008 320.5814 0002979 263.3191  96.7629 14.98329457 75154,6950.195,96.107,574.13,569.989,0.0
55652.0,STARLINK-5487,PAYLOAD,2024-06-22 19:41:38,14.98330114,0.000298,70.0008,319.9081,263.7368,96.3451,2.467e-05,2.01e-06,0.0,0 STARLINK-5487,1 55652U 23021AA  24174.82058480  .00000201  00000-0  24670-4 0  9990,2 55652  70.0008 319.9081 0002980 263.7368  96.3451 14.98330114 74895,6950.193,96.107,574.129,569.986,0.0
55652.0,STARLINK-5487,PAYLOAD,2024-06-23 13:19:07,14.98332581,0.0003076,70.0007,318.0566,265.2496,94.8312,2.4834e-05,2.03e-06,0.0,0 STARLINK-5487,1 55652U 23021AA  24175.55494262  .00000203  00000-0  24834-4 0  9997,2 55652  70.0007 318.0566 0003076 265.2496  94.8312 14.98332581 75304,6950.185,96.107,574.188,569.912,0.0
55652.0,STARLINK-5487,PAYLOAD,2024-06-23 19:43:38,14.98335697,0.000302,70.0008,317.3835,264.772,95.3094,6.092e-05,6.34e-06,0.0,0 STARLINK-5487,1 55652U 23021AA  24175.82197903  .00000634  00000-0  60920-4 0  9993,2 55652  70.0008 317.3835 0003020 264.7720  95.3094 14.98335697 75044,6950.175,96.107,574.139,569.941,0.0
55652.0,STARLINK-5487,PAYLOAD,2024-06-24 13:21:07,14.98330877,0.0002948,70.001,315.5319,264.5291,95.5532,4.9866e-05,5.02e-06,0.0,0 STARLINK-5487,1 55652U 23021AA  24176.55634089  .00000502  00000-0  49866-4 0  9995,2 55652  70.0010 315.5319 0002948 264.5291  95.5532 14.98330877 75452,6950.19,96.107,574.104,570.006,0.0
55652.0,STARLINK-5487,PAYLOAD,2024-06-24 18:09:31,14.98331704,0.0002935,70.001,315.0269,264.2883,95.7941,5.6095e-05,5.76e-06,0.0,0 STARLINK-5487,1 55652U 23021AA  24176.75662004  .00000576  00000-0  56095-4 0  9998,2 55652  70.0010 315.0269 0002935 264.2883  95.7941 14.98331704 75480,6950.188,96.107,574.093,570.013,0.0
55652.0,STARLINK-5487,PAYLOAD,2024-06-25 13:23:08,14.98332287,0.0002911,70.0011,313.0071,263.0291,97.0537,-4.7105e-06,-1.49e-06,0.0,0 STARLINK-5487,1 55652U 23021AA  24177.55774017 -.00000149  00000-0 -47105-5 0  9996,2 55652  70.0011 313.0071 0002911 263.0291  97.0537 14.98332287 75601,6950.186,96.107,574.074,570.028,0.0
55652.0,STARLINK-5487,PAYLOAD,2024-06-25 18:11:32,14.98332273,0.0002903,70.0012,312.5023,264.3528,95.73,-4.1157e-06,-1.42e-06,0.0,0 STARLINK-5487,1 55652U 23021AA  24177.75801996 -.00000142  00000-0 -41157-5 0  9999,2 55652  70.0012 312.5023 0002903 264.3528  95.7300 14.98332273 75339,6950.186,96.107,574.069,570.033,0.0
55652.0,STARLINK-5487,PAYLOAD,2024-06-26 11:49:01,14.98330599,0.00029,70.0013,310.651,260.4433,99.6398,2.1239e-05,1.6e-06,0.0,0 STARLINK-5487,1 55652U 23021AA  24178.49237918  .00000160  00000-0  21239-4 0  9994,2 55652  70.0013 310.6510 0002900 260.4433  99.6398 14.98330599 75743,6950.191,96.107,574.072,570.04,0.0
55652.0,STARLINK-5487,PAYLOAD,2024-06-27 13:27:10,14.9832897,0.0003131,70.001,307.9582,269.3226,90.7575,4.3398e-06,-4.1e-07,0.0,0 STARLINK-5487,1 55652U 23021AA  24179.56054148 -.00000041  00000-0  43398-5 0  9995,2 55652  70.0010 307.9582 0003131 269.3226  90.7575 14.98328970 75607,6950.196,96.107,574.237,569.885,0.0
55652.0,STARLINK-5487,PAYLOAD,2024-06-27 16:39:26,14.98331369,0.0003137,70.0008,307.6211,269.6807,90.3992,3.1339e-05,2.81e-06,0.0,0 STARLINK-5487,1 55652U 23021AA  24179.69405925  .00000281  00000-0  31339-4 0  9998,2 55652  70.0008 307.6211 0003137 269.6807  90.3992 14.98331369 75924,6950.189,96.107,574.234,569.873,0.0
55652.0,STARLINK-5487,PAYLOAD,2024-06-28 13:29:11,14.98332944,0.000323,70.0003,305.4309,270.0294,90.0495,0.00011111,1.233e-05,0.0,0 STARLINK-5487,1 55652U 23021AA  24180.56193539  .00001233  00000-0  11111-3 0  9994,2 55652  70.0003 305.4309 0003230 270.0294  90.0495 14.98332944 75759,6950.184,96.107,574.294,569.804,0.0
55652.0,STARLINK-5487,PAYLOAD,2024-06-28 15:05:18,14.98339092,0.0003265,70.0001,305.2634,270.8866,89.1919,0.00014329,1.617e-05,0.0,0 STARLINK-5487,1 55652U 23021AA  24180.62869055  .00001617  00000-0  14329-3 0  9994,2 55652  70.0001 305.2634 0003265 270.8866  89.1919 14.98339092 76063,6950.165,96.106,574.299,569.761,0.0
55652.0,STARLINK-5487,PAYLOAD,2024-06-28 18:17:34,14.98343243,0.0003179,70.0003,304.9265,270.7874,89.2921,0.00018993,2.175e-05,0.0,0 STARLINK-5487,1 55652U 23021AA  24180.76220630  .00002175  00000-0  18993-3 0  9990,2 55652  70.0003 304.9265 0003179 270.7874  89.2921 14.98343243 75788,6950.152,96.106,574.226,569.807,0.0
55652.0,STARLINK-5487,PAYLOAD,2024-06-29 13:31:12,14.98327278,0.0003084,70.0001,302.9055,269.6594,90.4212,4.141e-05,4.01e-06,0.0,0 STARLINK-5487,1 55652U 23021AA  24181.56334009  .00000401  00000-0  41410-4 0  9996,2 55652  70.0001 302.9055 0003084 269.6594  90.4212 14.98327278 75903,6950.201,96.107,574.21,569.923,0.0
55652.0,STARLINK-5487,PAYLOAD,2024-06-29 15:07:20,14.98329783,0.0003232,70.0001,302.7384,271.8892,88.1897,4.1074e-05,3.97e-06,0.0,0 STARLINK-5487,1 55652U 23021AA  24181.63009897  .00000397  00000-0  41074-4 0  9998,2 55652  70.0001 302.7384 0003232 271.8892  88.1897 14.98329783 76218,6950.194,96.107,574.305,569.812,0.0
55652.0,STARLINK-5487,PAYLOAD,2024-06-29 18:19:36,14.98332961,0.0003105,70.0003,302.4017,270.1048,89.9755,8.2188e-05,8.88e-06,0.0,0 STARLINK-5487,1 55652U 23021AA  24181.76361635  .00000888  00000-0  82188-4 0  9999,2 55652  70.0003 302.4017 0003105 270.1048  89.9755 14.98332961 76230,6950.184,96.107,574.207,569.891,0.0
55652.0,STARLINK-5487,PAYLOAD,2024-06-30 11:57:05,14.98329202,0.0003,70.0005,300.5502,271.6034,88.4781,-1.8632e-05,-3.15e-06,0.0,0 STARLINK-5487,1 55652U 23021AA  24182.49798123 -.00000315  00000-0 -18632-4 0  9996,2 55652  70.0005 300.5502 0003000 271.6034  88.4781 14.98329202 76344,6950.195,96.107,574.145,569.975,0.0
